[{"CCSDS_OMM_VERS":"3.0","COMMENT":"GENERATED VIA SPACE-TRACK.ORG API","CREATION_DATE":"2026-05-16T17:43:08","ORIGINATOR":"18 SPCS","OBJECT_NAME":"OPS 5798 DEB","OBJECT_ID":"1964-063D","CENTER_NAME":"EARTH","REF_FRAME":"TEME","TIME_SYSTEM":"UTC","MEAN_ELEMENT_THEORY":"SGP4","EPOCH":"2026-05-16T14:11:55.975776","MEAN_MOTION":"13.55140936","ECCENTRICITY":"0.00177493","INCLINATION":"90.2376","RA_OF_ASC_NODE":"75.6720","ARG_OF_PERICENTER":"208.9672","MEAN_ANOMALY":"324.5318","EPHEMERIS_TYPE":"0","CLASSIFICATION_TYPE":"U","NORAD_CAT_ID":"901","ELEMENT_SET_NO":"999","REV_AT_EPOCH":"4218","BSTAR":"0.00009862414200","MEAN_MOTION_DOT":"0.00000077","MEAN_MOTION_DDOT":"0.0000000000000","SEMIMAJOR_AXIS":"7431.541","PERIOD":"106.262","APOAPSIS":"1066.596","PERIAPSIS":"1040.215","OBJECT_TYPE":"DEBRIS","RCS_SIZE":"LARGE","COUNTRY_CODE":"US","LAUNCH_DATE":"1964-10-06","SITE":"AFWTR","DECAY_DATE":null,"FILE":"5196581","GP_ID":"323457746","TLE_LINE0":"0 OPS 5798 DEB","TLE_LINE1":"1 00901U 64063D   26136.59162009  .00000077  00000-0  98624-4 0  9996","TLE_LINE2":"2 00901  90.2376  75.6720 0017749 208.9672 324.5318 13.55140936 42186"},{"CCSDS_OMM_VERS":"3.0","COMMENT":"GENERATED VIA SPACE-TRACK.ORG API","CREATION_DATE":"2026-05-16T17:43:08","ORIGINATOR":"18 SPCS","OBJECT_NAME":"CALSPHERE 2","OBJECT_ID":"1964-063E","CENTER_NAME":"EARTH","REF_FRAME":"TEME","TIME_SYSTEM":"UTC","MEAN_ELEMENT_THEORY":"SGP4","EPOCH":"2026-05-16T14:55:17.686272","MEAN_MOTION":"13.52897545","ECCENTRICITY":"0.00174096","INCLINATION":"90.2368","RA_OF_ASC_NODE":"75.0352","ARG_OF_PERICENTER":"324.5399","MEAN_ANOMALY":"210.1988","EPHEMERIS_TYPE":"0","CLASSIFICATION_TYPE":"U","NORAD_CAT_ID":"902","ELEMENT_SET_NO":"999","REV_AT_EPOCH":"85199","BSTAR":"0.00001876501900","MEAN_MOTION_DOT":"0.00000021","MEAN_MOTION_DDOT":"0.0000000000000","SEMIMAJOR_AXIS":"7439.754","PERIOD":"106.438","APOAPSIS":"1074.571","PERIAPSIS":"1048.667","OBJECT_TYPE":"PAYLOAD","RCS_SIZE":"SMALL","COUNTRY_CODE":"US","LAUNCH_DATE":"1964-10-06","SITE":"AFWTR","DECAY_DATE":null,"FILE":"5196581","GP_ID":"323457246","TLE_LINE0":"0 CALSPHERE 2","TLE_LINE1":"1 00902U 64063E   26136.62173248  .00000021  00000-0  18765-4 0  9995","TLE_LINE2":"2 00902  90.2368  75.0352 0017410 324.5399 210.1988 13.52897545851991"},{"CCSDS_OMM_VERS":"3.0","COMMENT":"GENERATED VIA SPACE-TRACK.ORG API","CREATION_DATE":"2026-05-16T10:38:26","ORIGINATOR":"18 SPCS","OBJECT_NAME":"OPS 5798 DEB","OBJECT_ID":"1964-063F","CENTER_NAME":"EARTH","REF_FRAME":"TEME","TIME_SYSTEM":"UTC","MEAN_ELEMENT_THEORY":"SGP4","EPOCH":"2026-05-16T06:48:08.807328","MEAN_MOTION":"13.80704106","ECCENTRICITY":"0.00200644","INCLINATION":"90.2257","RA_OF_ASC_NODE":"70.3331","ARG_OF_PERICENTER":"200.8571","MEAN_ANOMALY":"313.5089","EPHEMERIS_TYPE":"0","CLASSIFICATION_TYPE":"U","NORAD_CAT_ID":"903","ELEMENT_SET_NO":"999","REV_AT_EPOCH":"6996","BSTAR":"0.00058170750000","MEAN_MOTION_DOT":"0.00000621","MEAN_MOTION_DDOT":"0.0000000000000","SEMIMAJOR_AXIS":"7339.527","PERIOD":"104.295","APOAPSIS":"976.119","PERIAPSIS":"946.666","OBJECT_TYPE":"DEBRIS","RCS_SIZE":"SMALL","COUNTRY_CODE":"US","LAUNCH_DATE":"1964-10-06","SITE":"AFWTR","DECAY_DATE":null,"FILE":"5196540","GP_ID":"323423547","TLE_LINE0":"0 OPS 5798 DEB","TLE_LINE1":"1 00903U 64063F   26136.28343527  .00000621  00000-0  58171-3 0  9997","TLE_LINE2":"2 00903  90.2257  70.3331 0020064 200.8571 313.5089 13.80704106 69960"},{"CCSDS_OMM_VERS":"3.0","COMMENT":"GENERATED VIA SPACE-TRACK.ORG API","CREATION_DATE":"2026-05-16T17:43:08","ORIGINATOR":"18 SPCS","OBJECT_NAME":"SCOUT X-4 R\/B","OBJECT_ID":"1964-064B","CENTER_NAME":"EARTH","REF_FRAME":"TEME","TIME_SYSTEM":"UTC","MEAN_ELEMENT_THEORY":"SGP4","EPOCH":"2026-05-16T14:42:29.756160","MEAN_MOTION":"13.80935410","ECCENTRICITY":"0.01205438","INCLINATION":"79.6924","RA_OF_ASC_NODE":"203.8089","ARG_OF_PERICENTER":"23.2107","MEAN_ANOMALY":"337.4421","EPHEMERIS_TYPE":"0","CLASSIFICATION_TYPE":"U","NORAD_CAT_ID":"907","ELEMENT_SET_NO":"999","REV_AT_EPOCH":"9828","BSTAR":"0.00006864762200","MEAN_MOTION_DOT":"0.00000083","MEAN_MOTION_DDOT":"0.0000000000000","SEMIMAJOR_AXIS":"7338.708","PERIOD":"104.277","APOAPSIS":"1049.036","PERIAPSIS":"872.109","OBJECT_TYPE":"ROCKET BODY","RCS_SIZE":"MEDIUM","COUNTRY_CODE":"US","LAUNCH_DATE":"1964-10-10","SITE":"AFWTR","DECAY_DATE":null,"FILE":"5196581","GP_ID":"323457247","TLE_LINE0":"0 SCOUT X-4 R\/B","TLE_LINE1":"1 00907U 64064B   26136.61284440  .00000083  00000-0  68648-4 0  9990","TLE_LINE2":"2 00907  79.6924 203.8089 0120544  23.2107 337.4421 13.80935410 98281"},{"CCSDS_OMM_VERS":"3.0","COMMENT":"GENERATED VIA SPACE-TRACK.ORG API","CREATION_DATE":"2026-05-16T19:46:19","ORIGINATOR":"18 SPCS","OBJECT_NAME":"EXPLORER 25 (INJUN-4)","OBJECT_ID":"1964-076B","CENTER_NAME":"EARTH","REF_FRAME":"TEME","TIME_SYSTEM":"UTC","MEAN_ELEMENT_THEORY":"SGP4","EPOCH":"2026-05-16T11:23:43.973664","MEAN_MOTION":"12.67203811","ECCENTRICITY":"0.11184500","INCLINATION":"81.3422","RA_OF_ASC_NODE":"42.9007","ARG_OF_PERICENTER":"340.3601","MEAN_ANOMALY":"15.7443","EPHEMERIS_TYPE":"0","CLASSIFICATION_TYPE":"U","NORAD_CAT_ID":"932","ELEMENT_SET_NO":"999","REV_AT_EPOCH":"81511","BSTAR":"0.00013480000000","MEAN_MOTION_DOT":"0.00000387","MEAN_MOTION_DDOT":"0.0000000000000","SEMIMAJOR_AXIS":"7771.488","PERIOD":"113.636","APOAPSIS":"2262.555","PERIAPSIS":"524.151","OBJECT_TYPE":"PAYLOAD","RCS_SIZE":"MEDIUM","COUNTRY_CODE":"US","LAUNCH_DATE":"1964-11-21","SITE":"AFWTR","DECAY_DATE":null,"FILE":"5196666","GP_ID":"323492798","TLE_LINE0":"0 EXPLORER 25 (INJUN-4)","TLE_LINE1":"1   932U 64076B   26136.47481451  .00000387  00000-0  13480-3 0  9996","TLE_LINE2":"2   932  81.3422  42.9007 1118450 340.3601  15.7443 12.67203811815116"},{"CCSDS_OMM_VERS":"3.0","COMMENT":"GENERATED VIA SPACE-TRACK.ORG API","CREATION_DATE":"2026-05-16T17:43:08","ORIGINATOR":"18 SPCS","OBJECT_NAME":"SCOUT X-4 R\/B","OBJECT_ID":"1964-076C","CENTER_NAME":"EARTH","REF_FRAME":"TEME","TIME_SYSTEM":"UTC","MEAN_ELEMENT_THEORY":"SGP4","EPOCH":"2026-05-16T09:16:30.709056","MEAN_MOTION":"12.82483220","ECCENTRICITY":"0.10505949","INCLINATION":"81.3354","RA_OF_ASC_NODE":"175.2330","ARG_OF_PERICENTER":"69.2650","MEAN_ANOMALY":"301.7744","EPHEMERIS_TYPE":"0","CLASSIFICATION_TYPE":"U","NORAD_CAT_ID":"933","ELEMENT_SET_NO":"999","REV_AT_EPOCH":"83250","BSTAR":"0.00019605826000","MEAN_MOTION_DOT":"0.00000613","MEAN_MOTION_DDOT":"0.0000000000000","SEMIMAJOR_AXIS":"7709.639","PERIOD":"112.282","APOAPSIS":"2141.475","PERIAPSIS":"521.533","OBJECT_TYPE":"ROCKET BODY","RCS_SIZE":"MEDIUM","COUNTRY_CODE":"US","LAUNCH_DATE":"1964-11-21","SITE":"AFWTR","DECAY_DATE":null,"FILE":"5196581","GP_ID":"323457248","TLE_LINE0":"0 SCOUT X-4 R\/B","TLE_LINE1":"1 00933U 64076C   26136.38646654  .00000613  00000-0  19606-3 0  9993","TLE_LINE2":"2 00933  81.3354 175.2330 1050595  69.2650 301.7744 12.82483220832501"},{"CCSDS_OMM_VERS":"3.0","COMMENT":"GENERATED VIA SPACE-TRACK.ORG API","CREATION_DATE":"2026-05-16T17:43:08","ORIGINATOR":"18 SPCS","OBJECT_NAME":"THOR ABLESTAR R\/B","OBJECT_ID":"1964-083A","CENTER_NAME":"EARTH","REF_FRAME":"TEME","TIME_SYSTEM":"UTC","MEAN_ELEMENT_THEORY":"SGP4","EPOCH":"2026-05-16T15:22:30.603936","MEAN_MOTION":"13.58836027","ECCENTRICITY":"0.00322187","INCLINATION":"90.0359","RA_OF_ASC_NODE":"193.0102","ARG_OF_PERICENTER":"164.1000","MEAN_ANOMALY":"0.7569","EPHEMERIS_TYPE":"0","CLASSIFICATION_TYPE":"U","NORAD_CAT_ID":"953","ELEMENT_SET_NO":"999","REV_AT_EPOCH":"4429","BSTAR":"0.00004950127200","MEAN_MOTION_DOT":"0.00000046","MEAN_MOTION_DDOT":"0.0000000000000","SEMIMAJOR_AXIS":"7418.062","PERIOD":"105.973","APOAPSIS":"1063.827","PERIAPSIS":"1016.027","OBJECT_TYPE":"ROCKET BODY","RCS_SIZE":"LARGE","COUNTRY_CODE":"US","LAUNCH_DATE":"1964-12-13","SITE":"AFWTR","DECAY_DATE":null,"FILE":"5196581","GP_ID":"323457749","TLE_LINE0":"0 THOR ABLESTAR R\/B","TLE_LINE1":"1 00953U 64083A   26136.64063199  .00000046  00000-0  49501-4 0  9997","TLE_LINE2":"2 00953  90.0359 193.0102 0032219 164.1000   0.7569 13.58836027 44299"},{"CCSDS_OMM_VERS":"3.0","COMMENT":"GENERATED VIA SPACE-TRACK.ORG API","CREATION_DATE":"2026-05-16T17:43:08","ORIGINATOR":"18 SPCS","OBJECT_NAME":"THOR ABLESTAR DEB","OBJECT_ID":"1964-083B","CENTER_NAME":"EARTH","REF_FRAME":"TEME","TIME_SYSTEM":"UTC","MEAN_ELEMENT_THEORY":"SGP4","EPOCH":"2026-05-16T14:07:55.007904","MEAN_MOTION":"13.67543026","ECCENTRICITY":"0.00253487","INCLINATION":"89.9278","RA_OF_ASC_NODE":"169.2017","ARG_OF_PERICENTER":"114.0561","MEAN_ANOMALY":"39.9836","EPHEMERIS_TYPE":"0","CLASSIFICATION_TYPE":"U","NORAD_CAT_ID":"956","ELEMENT_SET_NO":"999","REV_AT_EPOCH":"5180","BSTAR":"0.00026373024000","MEAN_MOTION_DOT":"0.00000233","MEAN_MOTION_DDOT":"0.0000000000000","SEMIMAJOR_AXIS":"7386.542","PERIOD":"105.298","APOAPSIS":"1027.131","PERIAPSIS":"989.683","OBJECT_TYPE":"DEBRIS","RCS_SIZE":"SMALL","COUNTRY_CODE":"US","LAUNCH_DATE":"1964-12-13","SITE":"AFWTR","DECAY_DATE":null,"FILE":"5196581","GP_ID":"323457249","TLE_LINE0":"0 THOR ABLESTAR DEB","TLE_LINE1":"1 00956U 64083B   26136.58883111  .00000233  00000-0  26373-3 0  9996","TLE_LINE2":"2 00956  89.9278 169.2017 0025349 114.0561  39.9836 13.67543026 51801"}]